{
  "type": "FeatureCollection",
  "features": [
    {
      "type": "Feature",
      "properties": {
        "norad_id": 35014,
        "name": "COSMOS 2251 DEB",
        "group": "cosmos-2251-debris",
        "lat": 62.78941421505146,
        "lon": 55.97270341754227,
        "alt_km": 640.6434248042151,
        "timestamp": "2025-12-23T16:57:12.750587+00:00",
        "meta_object_name": "COSMOS 2251 DEB",
        "meta_object_id": "1993-036AGB",
        "meta_epoch": "2025-12-22T09:43:37.618464",
        "meta_mean_motion": 14.75357031,
        "meta_eccentricity": 0.00066485,
        "meta_inclination": 73.9987,
        "meta_ra_of_asc_node": 24.596,
        "meta_arg_of_pericenter": 203.6446,
        "meta_mean_anomaly": 156.4423,
        "meta_ephemeris_type": 0,
        "meta_classification_type": "U",
        "meta_norad_cat_id": 35014,
        "meta_element_set_no": 999,
        "meta_rev_at_epoch": 71479,
        "meta_bstar": 0.0015862083,
        "meta_mean_motion_dot": 0.00010749,
        "meta_mean_motion_ddot": 0,
        "tle_line1": "1 35014U 93036AGB 25356.40529651  .00010749  00000+0  15862-2 0  9991",
        "tle_line2": "2 35014  73.9987  24.5960 0006648 203.6446 156.4423 14.75357031714792"
      },
      "geometry": {
        "type": "Point",
        "coordinates": [
          55.97270341754227,
          62.78941421505146
        ]
      }
    },
    {
      "type": "Feature",
      "properties": {
        "norad_id": 35015,
        "name": "COSMOS 2251 DEB",
        "group": "cosmos-2251-debris",
        "lat": 53.81623773844648,
        "lon": -122.6928002363312,
        "alt_km": 681.4841117659189,
        "timestamp": "2025-12-23T16:57:12.750598+00:00",
        "meta_object_name": "COSMOS 2251 DEB",
        "meta_object_id": "1993-036AGC",
        "meta_epoch": "2025-12-21T09:05:04.900416",
        "meta_mean_motion": 14.46918455,
        "meta_eccentricity": 0.00743638,
        "meta_inclination": 73.9465,
        "meta_ra_of_asc_node": 218.4969,
        "meta_arg_of_pericenter": 85.0123,
        "meta_mean_anomaly": 91.7115,
        "meta_ephemeris_type": 0,
        "meta_classification_type": "U",
        "meta_norad_cat_id": 35015,
        "meta_element_set_no": 999,
        "meta_rev_at_epoch": 65565,
        "meta_bstar": 0.0005445635,
        "meta_mean_motion_dot": 2.019e-05,
        "meta_mean_motion_ddot": 0,
        "tle_line1": "1 35015U 93036AGC 25355.37852894  .00002019  00000+0  54456-3 0  9999",
        "tle_line2": "2 35015  73.9465 218.4969 0074363  85.0123  91.7115 14.46918455655659"
      },
      "geometry": {
        "type": "Point",
        "coordinates": [
          -122.6928002363312,
          53.81623773844648
        ]
      }
    },
    {
      "type": "Feature",
      "properties": {
        "norad_id": 35016,
        "name": "COSMOS 2251 DEB",
        "group": "cosmos-2251-debris",
        "lat": -25.500853348504595,
        "lon": -93.71607418922521,
        "alt_km": 846.3085643134227,
        "timestamp": "2025-12-23T16:57:12.750609+00:00",
        "meta_object_name": "COSMOS 2251 DEB",
        "meta_object_id": "1993-036AGD",
        "meta_epoch": "2025-12-21T05:33:15.838848",
        "meta_mean_motion": 14.35075882,
        "meta_eccentricity": 0.01140745,
        "meta_inclination": 73.9302,
        "meta_ra_of_asc_node": 278.7521,
        "meta_arg_of_pericenter": 193.9283,
        "meta_mean_anomaly": 317.5381,
        "meta_ephemeris_type": 0,
        "meta_classification_type": "U",
        "meta_norad_cat_id": 35016,
        "meta_element_set_no": 999,
        "meta_rev_at_epoch": 86904,
        "meta_bstar": 0.00026149228,
        "meta_mean_motion_dot": 7.75e-06,
        "meta_mean_motion_ddot": 0,
        "tle_line1": "1 35016U 93036AGD 25355.23143332  .00000775  00000+0  26149-3 0  9990",
        "tle_line2": "2 35016  73.9302 278.7521 0114074 193.9283 317.5381 14.35075882869043"
      },
      "geometry": {
        "type": "Point",
        "coordinates": [
          -93.71607418922521,
          -25.500853348504595
        ]
      }
    },
    {
      "type": "Feature",
      "properties": {
        "norad_id": 35018,
        "name": "COSMOS 2251 DEB",
        "group": "cosmos-2251-debris",
        "lat": -73.88369272497629,
        "lon": -4.029415327900751,
        "alt_km": 1009.6143435658387,
        "timestamp": "2025-12-23T16:57:12.750620+00:00",
        "meta_object_name": "COSMOS 2251 DEB",
        "meta_object_id": "1993-036AGF",
        "meta_epoch": "2025-12-21T14:27:14.171040",
        "meta_mean_motion": 13.67131243,
        "meta_eccentricity": 0.0348897,
        "meta_inclination": 73.9753,
        "meta_ra_of_asc_node": 95.386,
        "meta_arg_of_pericenter": 2.6305,
        "meta_mean_anomaly": 357.6538,
        "meta_ephemeris_type": 0,
        "meta_classification_type": "U",
        "meta_norad_cat_id": 35018,
        "meta_element_set_no": 999,
        "meta_rev_at_epoch": 83307,
        "meta_bstar": 0.00070084,
        "meta_mean_motion_dot": 8.72e-06,
        "meta_mean_motion_ddot": 0,
        "tle_line1": "1 35018U 93036AGF 25355.60224735  .00000872  00000+0  70084-3 0  9995",
        "tle_line2": "2 35018  73.9753  95.3860 0348897   2.6305 357.6538 13.67131243833078"
      },
      "geometry": {
        "type": "Point",
        "coordinates": [
          -4.029415327900751,
          -73.88369272497629
        ]
      }
    },
    {
      "type": "Feature",
      "properties": {
        "norad_id": 35020,
        "name": "COSMOS 2251 DEB",
        "group": "cosmos-2251-debris",
        "lat": 72.53814584543406,
        "lon": -116.63184032432032,
        "alt_km": 734.2625748278833,
        "timestamp": "2025-12-23T16:57:12.750631+00:00",
        "meta_object_name": "COSMOS 2251 DEB",
        "meta_object_id": "1993-036AGH",
        "meta_epoch": "2025-12-22T20:52:40.621440",
        "meta_mean_motion": 14.6281967,
        "meta_eccentricity": 0.00912679,
        "meta_inclination": 74.045,
        "meta_ra_of_asc_node": 179.5398,
        "meta_arg_of_pericenter": 291.2908,
        "meta_mean_anomaly": 67.8532,
        "meta_ephemeris_type": 0,
        "meta_classification_type": "U",
        "meta_norad_cat_id": 35020,
        "meta_element_set_no": 999,
        "meta_rev_at_epoch": 88386,
        "meta_bstar": 0.00012972073,
        "meta_mean_motion_dot": 6.69e-06,
        "meta_mean_motion_ddot": 0,
        "tle_line1": "1 35020U 93036AGH 25356.86991460  .00000669  00000+0  12972-3 0  9999",
        "tle_line2": "2 35020  74.0450 179.5398 0091267 291.2908  67.8532 14.62819670883868"
      },
      "geometry": {
        "type": "Point",
        "coordinates": [
          -116.63184032432032,
          72.53814584543406
        ]
      }
    },
    {
      "type": "Feature",
      "properties": {
        "norad_id": 35022,
        "name": "COSMOS 2251 DEB",
        "group": "cosmos-2251-debris",
        "lat": 53.07394381594038,
        "lon": -36.635789882802435,
        "alt_km": 679.7541242207144,
        "timestamp": "2025-12-23T16:57:12.750642+00:00",
        "meta_object_name": "COSMOS 2251 DEB",
        "meta_object_id": "1993-036AGK",
        "meta_epoch": "2025-12-23T05:11:29.419872",
        "meta_mean_motion": 14.6087455,
        "meta_eccentricity": 0.00462541,
        "meta_inclination": 74.028,
        "meta_ra_of_asc_node": 301.8992,
        "meta_arg_of_pericenter": 138.376,
        "meta_mean_anomaly": 222.0943,
        "meta_ephemeris_type": 0,
        "meta_classification_type": "U",
        "meta_norad_cat_id": 35022,
        "meta_element_set_no": 999,
        "meta_rev_at_epoch": 59296,
        "meta_bstar": 0.00044697282,
        "meta_mean_motion_dot": 2.19e-05,
        "meta_mean_motion_ddot": 0,
        "tle_line1": "1 35022U 93036AGK 25357.21631273  .00002190  00000+0  44697-3 0  9994",
        "tle_line2": "2 35022  74.0280 301.8992 0046254 138.3760 222.0943 14.60874550592969"
      },
      "geometry": {
        "type": "Point",
        "coordinates": [
          -36.635789882802435,
          53.07394381594038
        ]
      }
    },
    {
      "type": "Feature",
      "properties": {
        "norad_id": 35023,
        "name": "COSMOS 2251 DEB",
        "group": "cosmos-2251-debris",
        "lat": 30.218838268456164,
        "lon": 0.866780741281851,
        "alt_km": 590.201220010129,
        "timestamp": "2025-12-23T16:57:12.750653+00:00",
        "meta_object_name": "COSMOS 2251 DEB",
        "meta_object_id": "1993-036AGL",
        "meta_epoch": "2025-12-22T23:18:13.036608",
        "meta_mean_motion": 14.95389416,
        "meta_eccentricity": 0.00335721,
        "meta_inclination": 74.0358,
        "meta_ra_of_asc_node": 191.9482,
        "meta_arg_of_pericenter": 268.2683,
        "meta_mean_anomaly": 243.0283,
        "meta_ephemeris_type": 0,
        "meta_classification_type": "U",
        "meta_norad_cat_id": 35023,
        "meta_element_set_no": 999,
        "meta_rev_at_epoch": 88432,
        "meta_bstar": 0.0015371475,
        "meta_mean_motion_dot": 0.00017173,
        "meta_mean_motion_ddot": 0,
        "tle_line1": "1 35023U 93036AGL 25356.97098422  .00017173  00000+0  15371-2 0  9993",
        "tle_line2": "2 35023  74.0358 191.9482 0033572 268.2683 243.0283 14.95389416884328"
      },
      "geometry": {
        "type": "Point",
        "coordinates": [
          0.866780741281851,
          30.218838268456164
        ]
      }
    }
  ]
}